#aV2015 10 11  0  0  0.00000000     288 DD+AD WGS84 FIT  NGA
## 1866      0.00000000   300.00000000 57306 0.0000000000000
+   31     1  2  3  4  5  6  7  8  9 11 12 13 14 15 16 17 18
+         19 20 21 22 23 24 25 26 27 28 29 30 31 32  0  0  0
+          0  0  0  0  0  0  0  0  0  0  0  0  0  0  0  0  0
+          0  0  0  0  0  0  0  0  0  0  0  0  0  0  0  0  0
+          0  0  0  0  0  0  0  0  0  0  0  0  0  0  0  0  0
++         2  2  2  2  2  2  2  2  2  2  2  2  2  2  2  2  2
++         2  2  2  2  2  2  2  2  2  2  2  2  2  2  0  0  0
++         0  0  0  0  0  0  0  0  0  0  0  0  0  0  0  0  0
++         0  0  0  0  0  0  0  0  0  0  0  0  0  0  0  0  0
++         0  0  0  0  0  0  0  0  0  0  0  0  0  0  0  0  0
%c cc cc ccc ccc cccc cccc cccc cccc ccccc ccccc ccccc ccccc
%c cc cc ccc ccc cccc cccc cccc cccc ccccc ccccc ccccc ccccc
%f  0.0000000  0.000000000  0.00000000000  0.000000000000000
%f  0.0000000  0.000000000  0.00000000000  0.000000000000000
%i    0    0    0    0      0      0      0      0         0
%i    0    0    0    0      0      0      0      0         0
/*      NGA, ST. LOUIS,MO.                                  
/*   EPHEMERIS COMPUTED FROM 2 DAYS OF DATA                 
/*   EPOCHA v2.4 SMOOTHER                                   
/*   G1762 IERS2010 SATAF SATAPC                            
*  2015 10 11  3 25  0.00000000
P  1 -19555.955356  -8494.254495  15893.619097      2.141154                    
V  1 -10221.773096 -17548.123048 -21656.566028      0.007423                    
P  2  13548.752469  22778.201978   4333.883569    592.292922                    
V  2  -5377.192057  -2142.604878  30406.380033      0.013614                    
P  3 -16600.068745   1525.489257  20687.620091     20.459197                    
V  3  10037.700590 -24275.163192   9825.560288     -0.011259                    
P  4 -19385.992222 -16410.665358   7849.292104    -30.784888                    
V  4  -3741.698548 -10182.794367 -28965.021018     -0.048515                    
P  5   6081.214846  18444.712623 -18093.380295   -186.371978                    
V  5 -11000.416297  20246.726650  17192.932388      0.039567                    
P  6   3691.141487  22110.618633  14247.415771     74.452600                    
V  6 -12266.038654 -13461.620038  24055.105183      0.070683                    
P  7 -13554.975354   6648.312236 -21745.115719    483.138100                    
V  7 -15640.928414 -23062.882552   2302.026906     -0.008042                    
P  8 -22843.297961  -6096.058842 -12043.254587     -8.304442                    
V  8  15042.336739  -3950.873558 -26444.104296     -0.013248                    
P  9 -23734.698039   8457.911826  -8431.410010     -3.556791                    
V  9 -10923.496819  -1588.136552  29164.978757      0.034507                    
P 11 -23776.331231  -8742.824016   7563.358256   -609.454399                    
V 11  -6053.292802  -9643.807890 -28045.992761     -0.023015                    
P 12  15023.853476   1867.931717  21688.666089    335.772335                    
V 12 -12239.902206  24901.772688   6506.694685      0.033036                    
P 13  14659.344751  12637.281829 -18273.797929   -155.788087                    
V 13 -22958.832710   1076.533129 -17904.130572     -0.028957                    
P 14  10854.369484 -14054.336753  19956.747957     28.905762                    
V 14  24840.312378    584.694291 -13415.859481     -0.023372                    
P 15  23905.768325   4678.090030 -11078.517287   -276.192019                    
V 15 -13266.058499   4952.454041 -26442.200275     -0.020080                    
P 16  -3873.331016 -18502.574875 -18576.013494    -77.731797                    
V 16  12166.697676 -20127.245082  17943.661427      0.038215                    
P 17 -10008.611467  14322.260598  20243.313142   -190.580863                    
V 17 -25078.317798    338.360067 -13040.015849     -0.011777                    
P 18  15557.821114 -19035.292680  -9174.827733    441.792917                    
V 18  -1302.933606  13036.104533 -28013.020776      0.035836                    
P 19 -26787.100282    663.735826    786.511567   -521.355361                    
V 19  -1262.341515  -2117.039799 -31658.915310     -0.005348                    
P 20  16182.024172   1937.210225 -21135.260804    362.168709                    
V 20  -8622.026560  25178.492284  -4247.142275      0.029878                    
P 21  11215.510590 -10710.903896 -20837.804720   -485.866804                    
V 21  17285.561808  22358.623436  -2437.055935     -0.026240                    
P 22   8283.112300 -25000.618728   2832.091037    399.695221                    
V 22   5083.988850  -1487.777318 -30734.972185      0.038040                    
P 23 -26457.586666   -594.819513   4377.268420   -138.146899                    
V 23   4999.047365  -3284.025289  30531.267476     -0.021372                    
P 24  20147.979074  10694.390042  13706.653745     -6.096542                    
V 24   8559.755118  15345.088830 -24333.747338     -0.006181                    
P 25  17264.019314 -12116.447950  15939.025832    -50.745709                    
V 25  -6918.733801  19318.790325  22201.919242     -0.054100                    
P 26   2980.281470 -24290.509432 -10310.241966    -80.092798                    
V 26   7623.331773 -10934.969513  27974.866083     -0.129422                    
P 27 -12905.400705 -12313.838360 -19745.524285     26.549616                    
V 27  24714.811180  -3594.432828 -13809.605048      0.030605                    
P 28 -12276.436713  23499.564918    667.080546    473.555714                    
V 28  -1766.814438   -865.635528 -32427.583505      0.025882                    
P 29  25217.625471  -5383.135419  -6275.061106    638.907731                    
V 29   8075.941086   1958.108387  30745.274331      0.019060                    
P 30  -5711.211112  17096.641207 -19479.908467     39.096867                    
V 30 -14112.925134 -20417.855293 -13862.803041      0.062283                    
P 31  -3582.401788 -22298.275040  13824.589676    299.668573                    
V 31  11417.991271  13357.901984  25066.580204     -0.014538                    
P 32 -10567.875894 -12233.158210  21095.793627    -17.961252                    
V 32  13385.492512 -23309.659131  -6258.109519      0.113457                    
EOF
